GLOBALSTAR M023         
1 25621U 99004A   24135.40595287 -.00000049  00000+0  30772-3 0  9998
2 25621  52.0089 187.6978 0009971 326.4815  47.0017 12.62453307165366
GLOBALSTAR M040         
1 25622U 99004B   24135.46407193 -.00000044  00000+0  33505-3 0  9995
2 25622  51.9902 191.0872 0000747 221.3395 152.5436 12.61973993164913
GLOBALSTAR M036         
1 25623U 99004C   24135.52252903 -.00000079  00000+0  53409-4 0  9994
2 25623  51.9956 211.0848 0010921   6.4102  96.1652 11.86565735131635
GLOBALSTAR M041         
1 25650U 99012B   24135.37318722 -.00000063  00000+0  29070-3 0  9997
2 25650  51.9991 164.3347 0002670 251.0082 109.0465 11.96659660130531
GLOBALSTAR M046         
1 25651U 99012C   24135.49025819  .00000069  00000+0  17365-2 0  9991
2 25651  52.0052 259.4116 0002752 166.7054 268.2994 12.09389834135420
GLOBALSTAR M037         
1 25652U 99012D   24135.52638319 -.00000023  00000+0  45278-3 0  9997
2 25652  52.0011 318.0992 0002271  46.7388 331.3164 12.62405478160929
